ONEWEB-0656             
1 55817U 23029X   24248.45326057  .00000164  00000+0  37218-3 0  9998
2 55817  87.9219  43.8478 0002276  82.0684 278.0708 13.20773988 75252
ONEWEB-0657             
1 55818U 23029Y   24248.56489088 -.00000104  00000+0 -29189-3 0  9999
2 55818  87.9095  74.4054 0002605  86.7963 273.3468 13.19723156 73093
ONEWEB-0658             
1 55819U 23029Z   24249.01505274 -.00000211  00000+0 -56059-3 0  9992
2 55819  87.9094  74.2504 0001724 109.9136 250.2183 13.19723748 73840
ONEWEB-0660             
1 55820U 23029AA  24248.54795532  .00000353  00000+0  91632-3 0  9990
2 55820  87.8935  59.0763 0001240  99.2286 260.8984 13.14500877 73929
ONEWEB-0661             
1 55821U 23029AB  24249.03954387 -.00000210  00000+0 -59980-3 0  9995
2 55821  87.8936  59.0453 0001208  92.3974 267.7294 13.14504169 74669
ONEWEB-0662             
1 55822U 23029AC  24248.99831568  .00000198  00000+0  49861-3 0  9995
2 55822  87.8935  59.0616 0001414 100.3290 259.7999 13.14503524 74724
ONEWEB-0663             
1 55823U 23029AD  24248.52074533  .00000129  00000+0  28531-3 0  9991
2 55823  87.9218  43.8944 0001436 106.4663 253.6628 13.20797110 75254
ONEWEB-0664             
1 55824U 23029AE  24248.97094696  .00000002  00000+0 -26089-4 0  9991
2 55824  87.9222  43.8193 0001357  80.2208 279.9079 13.20770320 76001
